[{"OBJECT_NAME":"STARLINK-5891","OBJECT_ID":"2023-058AL","EPOCH":"2026-03-09T22:38:46.444704","MEAN_MOTION":15.05647988,"ECCENTRICITY":0.00018791,"INCLINATION":97.6046,"RA_OF_ASC_NODE":71.4513,"ARG_OF_PERICENTER":92.9955,"MEAN_ANOMALY":267.1487,"EPHEMERIS_TYPE":0,"CLASSIFICATION_TYPE":"U","NORAD_CAT_ID":56351,"ELEMENT_SET_NO":999,"REV_AT_EPOCH":15823,"BSTAR":2.0695003e-5,"MEAN_MOTION_DOT":2.38e-6,"MEAN_MOTION_DDOT":0},{"OBJECT_NAME":"PEGASUS DEB","OBJECT_ID":"1994-029LN","EPOCH":"2026-03-09T13:32:28.639104","MEAN_MOTION":14.7969053,"ECCENTRICITY":0.014325,"INCLINATION":81.5077,"RA_OF_ASC_NODE":265.5669,"ARG_OF_PERICENTER":165.8227,"MEAN_ANOMALY":194.7072,"EPHEMERIS_TYPE":0,"CLASSIFICATION_TYPE":"U","NORAD_CAT_ID":24239,"ELEMENT_SET_NO":999,"REV_AT_EPOCH":56152,"BSTAR":0.0015079,"MEAN_MOTION_DOT":0.00013522,"MEAN_MOTION_DDOT":0}]
